*******************************************************************************
 Revised: Mar 12, 2021           Ganymede / (Jupiter)                       503

 SATELLITE PHYSICAL PROPERTIES:
  Mean radius (km)       = 2631.2   +- 1.7    Density (g cm^-3)= 1.942 +- 0.005
  GM (km^3/s^2)          = 9887.8328+- 0.0074 Geometric Albedo = 0.43  +- 0.02

 SATELLITE ORBIT (at J2000.0 epoch, 2000-Jan-1.5):
  Semi-major axis, a (km) ~ 1,070,000         Orbital period   ~ 7.155 d
  Eccentricity, e         ~ 0                 Rotational period= Synchronous
  Inclination, i  (deg)   ~ 0.2   
*******************************************************************************
 
 
*******************************************************************************
Ephemeris / WWW_USER Wed Apr  7 13:45:02 2021 Pasadena, USA      / Horizons
*******************************************************************************
Target body name: Ganymede (503)                  {source: jup365_merged}
Center body name: Jupiter (599)                   {source: jup365_merged}
Center-site name: BODY CENTER
*******************************************************************************
Start time      : A.D. 1986-Apr-24 12:00:00.0000 TDB
Stop  time      : A.D. 2013-Sep-09 12:00:00.0000 TDB
Step-size       : 144000 minutes
*******************************************************************************
Center geodetic : 0.00000000,0.00000000,0.0000000 {W-lon(deg),Lat(deg),Alt(km)}
Center cylindric: 0.00000000,0.00000000,0.0000000 {W-lon(deg),Dxy(km),Dz(km)}
Center radii    : 71492.0 x 71492.0 x 66854.0 km  {Equator, meridian, pole}    
Output units    : AU-D
Output type     : LT CORRECTED cartesian states
Output format   : 2 (position and velocity)
Reference frame : Ecliptic of J2000.0
*******************************************************************************
JDTDB
   X     Y     Z
   VX    VY    VZ
*******************************************************************************
$$SOE
2450245.000000000 = A.D. 1996-Jun-10 12:00:00.0000 TDB 
 X = 6.014939330785285E-03 Y =-3.855083995586470E-03 Z =-7.573408845101518E-05
 VX= 3.403746932631119E-03 VY= 5.287637511118362E-03 VZ= 2.296529491302095E-04
2450345.000000000 = A.D. 1996-Sep-18 12:00:00.0000 TDB 
 X = 5.401588610742840E-03 Y =-4.680090202217278E-03 Z =-1.125005848928847E-04
 VX= 4.127955308689048E-03 VY= 4.742118622118288E-03 VZ= 2.179308541923676E-04
2450445.000000000 = A.D. 1996-Dec-27 12:00:00.0000 TDB 
 X = 4.669764684126816E-03 Y =-5.412737218808285E-03 Z =-1.473876253772221E-04
 VX= 4.765483039206268E-03 VY= 4.097483892883527E-03 VZ= 2.016519616794000E-04
2450545.000000000 = A.D. 1997-Apr-06 12:00:00.0000 TDB 
 X = 3.836166286587406E-03 Y =-6.028134599513872E-03 Z =-1.791280484735512E-04
 VX= 5.308657998257488E-03 VY= 3.372007646940461E-03 VZ= 1.813668772059430E-04
2450645.000000000 = A.D. 1997-Jul-15 12:00:00.0000 TDB 
 X = 2.927851071450772E-03 Y =-6.510686731239832E-03 Z =-2.069703039387947E-04
 VX= 5.741367392759288E-03 VY= 2.577478381941388E-03 VZ= 1.572084184721512E-04
2450745.000000000 = A.D. 1997-Oct-23 12:00:00.0000 TDB 
 X = 1.965624709594139E-03 Y =-6.859945110829141E-03 Z =-2.305952186043866E-04
 VX= 6.054745514823531E-03 VY= 1.729034553652727E-03 VZ= 1.297737547724973E-04
2450845.000000000 = A.D. 1998-Jan-31 12:00:00.0000 TDB 
 X = 9.633257049352249E-04 Y =-7.072640610267882E-03 Z =-2.496289527647593E-04
 VX= 6.237718494031400E-03 VY= 8.425578156428537E-04 VZ= 9.938315279063245E-05
2450945.000000000 = A.D. 1998-May-11 12:00:00.0000 TDB 
 X =-6.517756246523772E-05 Y =-7.142346605544784E-03 Z =-2.638060779701504E-04
 VX= 6.291051731662451E-03 VY=-6.057420467377784E-05 VZ= 6.687824245903278E-05
2451045.000000000 = A.D. 1998-Aug-19 12:00:00.0000 TDB 
 X =-1.099797999291661E-03 Y =-7.058329154131854E-03 Z =-2.723599832122329E-04
 VX= 6.215663206199381E-03 VY=-9.646365303568208E-04 VZ= 3.291488958807427E-05
2451145.000000000 = A.D. 1998-Nov-27 12:00:00.0000 TDB 
 X =-2.107349002375007E-03 Y =-6.821713125591195E-03 Z =-2.750038992782674E-04
 VX= 6.015664492720493E-03 VY=-1.848655034267422E-03 VZ=-1.813466292772529E-06
2451245.000000000 = A.D. 1999-Mar-07 12:00:00.0000 TDB 
 X =-3.063831585946160E-03 Y =-6.445896696986671E-03 Z =-2.720214181093959E-04
 VX= 5.689713637150644E-03 VY=-2.694694938971307E-03 VZ=-3.652273122296333E-05
2451345.000000000 = A.D. 1999-Jun-15 12:00:00.0000 TDB 
 X =-3.953436324612395E-03 Y =-5.944231675805535E-03 Z =-2.635950895947344E-04
 VX= 5.244529146955324E-03 VY=-3.478763488060298E-03 VZ=-7.030932323113518E-05
2451445.000000000 = A.D. 1999-Sep-23 12:00:00.0000 TDB 
 X =-4.767775249777150E-03 Y =-5.322250582554394E-03 Z =-2.499861853871841E-04
 VX= 4.689218085029100E-03 VY=-4.190247751316459E-03 VZ=-1.027255693002535E-04
2451545.000000000 = A.D. 2000-Jan-01 12:00:00.0000 TDB 
 X =-5.490331053675006E-03 Y =-4.581608268008831E-03 Z =-2.310018278873391E-04
 VX= 4.035523482971718E-03 VY=-4.815477285815156E-03 VZ=-1.330433620532380E-04
2451645.000000000 = A.D. 2000-Apr-10 12:00:00.0000 TDB 
 X =-6.096419054792954E-03 Y =-3.737934240581769E-03 Z =-2.068996873788985E-04
 VX= 3.299981451507097E-03 VY=-5.347412210831916E-03 VZ=-1.609487706305493E-04
2451745.000000000 = A.D. 2000-Jul-19 12:00:00.0000 TDB 
 X =-6.568210059753266E-03 Y =-2.821536954079938E-03 Z =-1.786972947967343E-04
 VX= 2.497066671176646E-03 VY=-5.766890319778970E-03 VZ=-1.855330715372764E-04
2451845.000000000 = A.D. 2000-Oct-27 12:00:00.0000 TDB 
 X =-6.903622230014521E-03 Y =-1.858795979359597E-03 Z =-1.471855928737080E-04
 VX= 1.647844175949205E-03 VY=-6.064442672172238E-03 VZ=-2.061847263878348E-04
2451945.000000000 = A.D. 2001-Feb-04 12:00:00.0000 TDB 
 X =-7.102977834054109E-03 Y =-8.605994577159910E-04 Z =-1.128192072400904E-04
 VX= 7.651279797831693E-04 VY=-6.232048928326005E-03 VZ=-2.225777567375794E-04
2452045.000000000 = A.D. 2001-May-15 12:00:00.0000 TDB 
 X =-7.160302374145823E-03 Y = 1.663097907891212E-04 Z =-7.576173800042466E-05
 VX=-1.353861523287796E-04 VY=-6.271883573253635E-03 VZ=-2.344784911104992E-04
2452145.000000000 = A.D. 2001-Aug-23 12:00:00.0000 TDB 
 X =-7.063469852275419E-03 Y = 1.200389374298913E-03 Z =-3.653219136460926E-05
 VX=-1.038188002299310E-03 VY=-6.184239870309386E-03 VZ=-2.417984049128800E-04
2452245.000000000 = A.D. 2001-Dec-01 12:00:00.0000 TDB 
 X =-6.814938219265285E-03 Y = 2.203107757722761E-03 Z = 3.310044848572666E-06
 VX=-1.917189229769816E-03 VY=-5.972635815917029E-03 VZ=-2.443387894783401E-04
2452345.000000000 = A.D. 2002-Mar-11 12:00:00.0000 TDB 
 X =-6.430512279307696E-03 Y = 3.148128688668349E-03 Z = 4.271081288650072E-05
 VX=-2.752440159155249E-03 VY=-5.639088255067887E-03 VZ=-2.418473063612765E-04
2452445.000000000 = A.D. 2002-Jun-19 12:00:00.0000 TDB 
 X =-5.923085552756614E-03 Y = 4.025389628432243E-03 Z = 8.115423047218394E-05
 VX=-3.524810323225259E-03 VY=-5.188984210676925E-03 VZ=-2.343745122664689E-04
2452545.000000000 = A.D. 2002-Sep-27 12:00:00.0000 TDB 
 X =-5.293598691517244E-03 Y = 4.831592382527339E-03 Z = 1.184165654456543E-04
 VX=-4.228423197491097E-03 VY=-4.628788170473688E-03 VZ=-2.219900519526557E-04
2452645.000000000 = A.D. 2003-Jan-05 12:00:00.0000 TDB 
 X =-4.544419447968638E-03 Y = 5.546034128542704E-03 Z = 1.538226101148876E-04
 VX=-4.847280334772996E-03 VY=-3.970285771227929E-03 VZ=-2.049230071047267E-04
2452745.000000000 = A.D. 2003-Apr-15 12:00:00.0000 TDB 
 X =-3.696477703320130E-03 Y = 6.140932201908041E-03 Z = 1.859823444936893E-04
 VX=-5.370763503574117E-03 VY=-3.233633807995973E-03 VZ=-1.838586512536585E-04
2452845.000000000 = A.D. 2003-Jul-24 12:00:00.0000 TDB 
 X =-2.781360455015479E-03 Y = 6.599819840376310E-03 Z = 2.139130884746961E-04
 VX=-5.780988352855419E-03 VY=-2.434395780504557E-03 VZ=-1.590438841964258E-04
2452945.000000000 = A.D. 2003-Nov-01 12:00:00.0000 TDB 
 X =-1.820703399176351E-03 Y = 6.924337156243110E-03 Z = 2.374728164278864E-04
 VX=-6.070939990777791E-03 VY=-1.589368967595676E-03 VZ=-1.311048008453616E-04
2453045.000000000 = A.D. 2004-Feb-09 12:00:00.0000 TDB 
 X =-8.195326909643300E-04 Y = 7.114871781165010E-03 Z = 2.564892130975322E-04
 VX=-6.233206334386327E-03 VY=-7.066570653921833E-04 VZ=-1.002311805898116E-04
2453145.000000000 = A.D. 2004-May-19 12:00:00.0000 TDB 
 X = 2.103737983434021E-04 Y = 7.162282906892106E-03 Z = 2.705685086508022E-04
 VX=-6.267920959348073E-03 VY= 1.940962146623769E-04 VZ=-6.709762488787319E-05
2453245.000000000 = A.D. 2004-Aug-27 12:00:00.0000 TDB 
 X = 1.242124617581672E-03 Y = 7.055786304460367E-03 Z = 2.789651145314511E-04
 VX=-6.175630117112653E-03 VY= 1.093482507540189E-03 VZ=-3.254415573729060E-05
2453345.000000000 = A.D. 2004-Dec-05 12:00:00.0000 TDB 
 X = 2.238708496494164E-03 Y = 6.799270213909555E-03 Z = 2.813208216169280E-04
 VX=-5.960468631239478E-03 VY= 1.966540200553717E-03 VZ= 2.542943200997999E-06
2453445.000000000 = A.D. 2005-Mar-15 12:00:00.0000 TDB 
 X = 3.179267440934325E-03 Y = 6.407934347825267E-03 Z = 2.780662644176144E-04
 VX=-5.623500074588411E-03 VY= 2.797997683783185E-03 VZ= 3.754700665382831E-05
2453545.000000000 = A.D. 2005-Jun-23 12:00:00.0000 TDB 
 X = 4.056316947890529E-03 Y = 5.891577614262939E-03 Z = 2.693791778312874E-04
 VX=-5.167343119731834E-03 VY= 3.570170917599208E-03 VZ= 7.174226874356275E-05
2453645.000000000 = A.D. 2005-Oct-01 12:00:00.0000 TDB 
 X = 4.860417541433081E-03 Y = 5.252719524768545E-03 Z = 2.552759831581535E-04
 VX=-4.601024600629468E-03 VY= 4.272695442662349E-03 VZ= 1.047302070397178E-04
2453745.000000000 = A.D. 2006-Jan-09 12:00:00.0000 TDB 
 X = 5.568607591030410E-03 Y = 4.497296626432081E-03 Z = 2.357513236363116E-04
 VX=-3.938043688678788E-03 VY= 4.887430609048890E-03 VZ= 1.356043330796076E-04
2453845.000000000 = A.D. 2006-Apr-19 12:00:00.0000 TDB 
 X = 6.155680538029859E-03 Y = 3.645376953201268E-03 Z = 2.111473153850246E-04
 VX=-3.198088916856446E-03 VY= 5.405836591347185E-03 VZ= 1.638407202889494E-04
